NORAD_CAT_ID,OBJECT_NAME,OBJECT_TYPE,EPOCH,MEAN_MOTION,ECCENTRICITY,INCLINATION,RA_OF_ASC_NODE,ARG_OF_PERICENTER,MEAN_ANOMALY,BSTAR,MEAN_MOTION_DOT,MEAN_MOTION_DDOT,TLE_LINE0,TLE_LINE1,TLE_LINE2,SEMIMAJOR_AXIS,PERIOD,APOGEE,PERIGEE,DECAYED
55406.0,STARLINK-5630,PAYLOAD,2024-07-13 22:10:07,14.98328921,0.0002802,70.0002,146.906,267.592,92.4918,1.3212e-05,6.5e-07,0.0,0 STARLINK-5630,1 55406U 23014R   24195.92370280  .00000065  00000-0  13212-4 0  9996,2 55406  70.0002 146.9060 0002802 267.5920  92.4918 14.98328921 81616,6950.196,96.107,574.009,570.114,0.0
55406.0,STARLINK-5630,PAYLOAD,2024-07-14 14:11:28,14.98332195,0.0002972,70.0002,145.2226,269.3654,90.7165,8.0449e-07,-8.3e-07,0.0,0 STARLINK-5630,1 55406U 23014R   24196.59130018 -.00000083  00000-0  80449-6 0  9992,2 55406  70.0002 145.2226 0002972 269.3654  90.7165 14.98332195 81718,6950.186,96.107,574.117,569.986,0.0
55406.0,STARLINK-5630,PAYLOAD,2024-07-14 22:12:08,14.98329884,0.0003005,70.0001,144.3811,269.2235,90.8579,1.3651e-05,7e-07,0.0,0 STARLINK-5630,1 55406U 23014R   24196.92510101  .00000070  00000-0  13651-4 0  9998,2 55406  70.0001 144.3811 0003005 269.2235  90.8579 14.98329884 81765,6950.193,96.107,574.147,569.97,0.0
55406.0,STARLINK-5630,PAYLOAD,2024-07-15 04:36:40,14.98335346,0.0003004,70.0,143.7075,269.1731,90.9083,3.523e-05,3.27e-06,0.0,0 STARLINK-5630,1 55406U 23014R   24197.19213678  .00000327  00000-0  35230-4 0  9999,2 55406  70.0000 143.7075 0003004 269.1731  90.9083 14.98335346 80869,6950.176,96.107,574.129,569.954,0.0
55406.0,STARLINK-5630,PAYLOAD,2024-07-15 14:13:29,14.98337231,0.0003146,70.0002,142.6969,268.1324,91.9474,-0.00011395,-1.453e-05,0.0,0 STARLINK-5630,1 55406U 23014R   24197.59269738 -.00001453  00000-0 -11395-3 0  9999,2 55406  70.0002 142.6969 0003146 268.1324  91.9474 14.98337231 81866,6950.171,96.107,574.222,569.849,0.0
55406.0,STARLINK-5630,PAYLOAD,2024-07-15 22:14:09,14.98324004,0.0003086,70.0005,141.8553,269.7574,90.3231,5.4893e-05,5.62e-06,0.0,0 STARLINK-5630,1 55406U 23014R   24197.92650221  .00000562  00000-0  54893-4 0  9996,2 55406  70.0005 141.8553 0003086 269.7574  90.3231 14.98324004 81910,6950.211,96.107,574.221,569.932,0.0
55406.0,STARLINK-5630,PAYLOAD,2024-07-16 04:38:41,14.98331515,0.0003005,70.0002,141.1829,270.3407,89.7408,4.7773e-05,4.77e-06,0.0,0 STARLINK-5630,1 55406U 23014R   24198.19353821  .00000477  00000-0  47773-4 0  9996,2 55406  70.0002 141.1829 0003005 270.3407  89.7408 14.98331515 81014,6950.188,96.107,574.142,569.965,0.0
55406.0,STARLINK-5630,PAYLOAD,2024-07-16 06:14:49,14.98332984,0.0002987,70.0003,141.0146,270.1961,89.8856,6.3434e-05,6.64e-06,0.0,0 STARLINK-5630,1 55406U 23014R   24198.26029682  .00000664  00000-0  63434-4 0  9999,2 55406  70.0003 141.0146 0002987 270.1961  89.8856 14.98332984 81960,6950.184,96.107,574.125,569.973,0.0
55406.0,STARLINK-5630,PAYLOAD,2024-07-16 22:16:10,14.98333714,0.0002944,70.0005,139.3315,271.9357,88.1465,4.1566e-05,4.03e-06,0.0,0 STARLINK-5630,1 55406U 23014R   24198.92789569  .00000403  00000-0  41566-4 0  9992,2 55406  70.0005 139.3315 0002944 271.9357  88.1465 14.98333714 82063,6950.181,96.107,574.093,570.0,0.0
55406.0,STARLINK-5630,PAYLOAD,2024-07-17 04:40:41,14.98341486,0.000286,70.0006,138.6581,272.6009,87.4823,0.00010033,1.105e-05,0.0,0 STARLINK-5630,1 55406U 23014R   24199.19492842  .00001105  00000-0  10033-3 0  9991,2 55406  70.0006 138.6581 0002860 272.6009  87.4823 14.98341486 81165,6950.157,96.106,574.01,570.035,0.0
55406.0,STARLINK-5630,PAYLOAD,2024-07-17 12:41:22,14.98330718,0.0002961,70.0007,137.817,273.1658,86.9162,8.6124e-06,1e-07,0.0,0 STARLINK-5630,1 55406U 23014R   24199.52873614  .00000010  00000-0  86124-5 0  9998,2 55406  70.0007 137.8170 0002961 273.1658  86.9162 14.98330718 81211,6950.191,96.107,574.114,569.998,0.0
55406.0,STARLINK-5630,PAYLOAD,2024-07-17 22:18:11,14.98323941,0.0002639,70.001,136.8071,274.6558,85.43,-5.5512e-05,-7.55e-06,0.0,0 STARLINK-5630,1 55406U 23014R   24199.92930383 -.00000755  00000-0 -55512-4 0  9993,2 55406  70.0010 136.8071 0002639 274.6558  85.4300 14.98323941 82210,6950.212,96.107,573.911,570.242,0.0
55406.0,STARLINK-5630,PAYLOAD,2024-07-18 12:43:24,14.98327248,0.0002557,70.0011,135.2932,268.7383,91.3483,-2.3588e-05,-3.74e-06,0.0,0 STARLINK-5630,1 55406U 23014R   24200.53014205 -.00000374  00000-0 -23588-4 0  9994,2 55406  70.0011 135.2932 0002557 268.7383  91.3483 14.98327248 81366,6950.201,96.107,573.844,570.289,0.0
55406.0,STARLINK-5630,PAYLOAD,2024-07-18 22:20:12,14.98332718,0.0002492,70.0012,134.2834,263.9966,96.0909,-3.6334e-05,-5.26e-06,0.0,0 STARLINK-5630,1 55406U 23014R   24200.93069914 -.00000526  00000-0 -36334-4 0  9997,2 55406  70.0012 134.2834 0002492 263.9966  96.0909 14.98332718 82363,6950.184,96.107,573.781,570.317,0.0
55406.0,STARLINK-5630,PAYLOAD,2024-07-19 04:44:44,14.98333641,0.0002505,70.0014,133.6112,261.8331,98.2544,-1.9322e-05,-3.23e-06,0.0,0 STARLINK-5630,1 55406U 23014R   24201.19773794 -.00000323  00000-0 -19322-4 0  9997,2 55406  70.0014 133.6112 0002505 261.8331  98.2544 14.98333641 81460,6950.182,96.107,573.788,570.306,0.0
55406.0,STARLINK-5630,PAYLOAD,2024-07-19 20:46:05,14.98323762,0.00025,70.0012,131.9268,265.0092,95.0782,7.0766e-05,7.51e-06,0.0,0 STARLINK-5630,1 55406U 23014R   24201.86534247  .00000751  00000-0  70766-4 0  9991,2 55406  70.0012 131.9268 0002500 265.0092  95.0782 14.98323762 81569,6950.212,96.107,573.815,570.34,0.0
55406.0,STARLINK-5630,PAYLOAD,2024-07-19 22:22:13,14.98323544,0.0002509,70.0012,131.7585,264.5419,95.5454,6.777e-05,7.16e-06,0.0,0 STARLINK-5630,1 55406U 23014R   24201.93210294  .00000716  00000-0  67770-4 0  9994,2 55406  70.0012 131.7585 0002509 264.5419  95.5454 14.98323544 82510,6950.213,96.107,573.822,570.334,0.0
55406.0,STARLINK-5630,PAYLOAD,2024-07-20 12:47:26,14.98330385,0.0003025,70.0005,130.2429,271.6614,88.4199,3.3162e-05,3.03e-06,0.0,0 STARLINK-5630,1 55406U 23014R   24202.53294034  .00000303  00000-0  33162-4 0  9995,2 55406  70.0005 130.2429 0003025 271.6614  88.4199 14.98330385 82601,6950.192,96.107,574.159,569.954,0.0
55406.0,STARLINK-5630,PAYLOAD,2024-07-20 20:48:06,14.98325217,0.0002892,70.0007,129.401,268.6661,91.4166,7.7921e-05,8.37e-06,0.0,0 STARLINK-5630,1 55406U 23014R   24202.86674385  .00000837  00000-0  77921-4 0  9995,2 55406  70.0007 129.4010 0002892 268.6661  91.4166 14.98325217 81715,6950.208,96.107,574.083,570.063,0.0
55406.0,STARLINK-5630,PAYLOAD,2024-07-20 22:24:14,14.98325245,0.0002898,70.0007,129.2327,268.592,91.4907,7.7099e-05,8.27e-06,0.0,0 STARLINK-5630,1 55406U 23014R   24202.93350407  .00000827  00000-0  77099-4 0  9994,2 55406  70.0007 129.2327 0002898 268.5920  91.4907 14.98325245 82666,6950.208,96.107,574.087,570.058,0.0
55406.0,STARLINK-5630,PAYLOAD,2024-07-21 04:48:46,14.98331544,0.0002813,70.0009,128.5604,267.3752,92.7085,9.547e-05,1.046e-05,0.0,0 STARLINK-5630,1 55406U 23014R   24203.20053979  .00001046  00000-0  95470-4 0  9996,2 55406  70.0009 128.5604 0002813 267.3752  92.7085 14.98331544 81765,6950.188,96.107,574.008,570.098,0.0
55406.0,STARLINK-5630,PAYLOAD,2024-07-21 22:26:15,14.98326898,0.0002826,70.0005,126.7065,265.9611,94.1225,8.6364e-05,9.38e-06,0.0,0 STARLINK-5630,1 55406U 23014R   24203.93490279  .00000938  00000-0  86364-4 0  9995,2 55406  70.0005 126.7065 0002826 265.9611  94.1225 14.98326898 82819,6950.202,96.107,574.032,570.103,0.0
55406.0,STARLINK-5630,PAYLOAD,2024-07-22 04:50:47,14.98335504,0.0002933,70.0003,126.0333,267.9344,92.1479,0.00011788,1.314e-05,0.0,0 STARLINK-5630,1 55406U 23014R   24204.20193636  .00001314  00000-0  11788-3 0  9999,2 55406  70.0003 126.0333 0002933 267.9344  92.1479 14.98335504 81915,6950.176,96.107,574.079,570.002,0.0
55406.0,STARLINK-5630,PAYLOAD,2024-07-22 22:28:16,14.983313,0.0003021,70.001,124.1845,271.1227,88.9586,0.00013436,1.511e-05,0.0,0 STARLINK-5630,1 55406U 23014R   24204.93629704  .00001511  00000-0  13436-3 0  9990,2 55406  70.0010 124.1845 0003021 271.1227  88.9586 14.98331300 82964,6950.189,96.107,574.154,569.954,0.0
55406.0,STARLINK-5630,PAYLOAD,2024-07-23 11:17:20,14.98329349,0.0002578,70.0011,122.8373,271.3485,88.7378,-1.5944e-05,-2.83e-06,0.0,0 STARLINK-5630,1 55406U 23014R   24205.47038112 -.00000283  00000-0 -15944-4 0  9991,2 55406  70.0011 122.8373 0002578 271.3485  88.7378 14.98329349 82103,6950.195,96.107,573.852,570.268,0.0
55406.0,STARLINK-5630,PAYLOAD,2024-07-23 22:30:17,14.98325729,0.0002537,70.0013,121.6595,275.0482,85.0387,-2.7463e-05,-4.21e-06,0.0,0 STARLINK-5630,1 55406U 23014R   24205.93770487 -.00000421  00000-0 -27463-4 0  9993,2 55406  70.0013 121.6595 0002537 275.0482  85.0387 14.98325729 83111,6950.206,96.107,573.834,570.308,0.0
55406.0,STARLINK-5630,PAYLOAD,2024-07-24 04:54:50,14.98323565,0.0002511,70.0014,120.9864,273.8911,86.1961,-4.4238e-05,-6.21e-06,0.0,0 STARLINK-5630,1 55406U 23014R   24206.20474769 -.00000621  00000-0 -44238-4 0  9999,2 55406  70.0014 120.9864 0002511 273.8911  86.1961 14.98323565 82214,6950.213,96.107,573.823,570.333,0.0
55406.0,STARLINK-5630,PAYLOAD,2024-07-24 22:32:17,14.98338739,0.0002792,70.0007,119.1357,258.8629,101.2216,-3.7574e-05,-5.41e-06,0.0,0 STARLINK-5630,1 55406U 23014R   24206.93909685 -.00000541  00000-0 -37574-4 0  9995,2 55406  70.0007 119.1357 0002792 258.8629 101.2216 14.98338739 83260,6950.166,96.106,573.971,570.09,0.0
55406.0,STARLINK-5630,PAYLOAD,2024-07-25 03:20:42,14.98336781,0.0002328,70.0018,118.6299,265.3397,94.7496,5.427e-05,5.55e-06,0.0,0 STARLINK-5630,1 55406U 23014R   24207.13937632  .00000555  00000-0  54270-4 0  9996,2 55406  70.0018 118.6299 0002328 265.3397  94.7496 14.98336781 82351,6950.172,96.107,573.655,570.419,0.0
55406.0,STARLINK-5630,PAYLOAD,2024-07-25 17:45:55,14.98326146,0.0002615,70.001,117.1144,276.9626,83.1235,0.0001525,1.727e-05,0.0,0 STARLINK-5630,1 55406U 23014R   24207.74022001  .00001727  00000-0  15250-3 0  9994,2 55406  70.0010 117.1144 0002615 276.9626  83.1235 14.98326146 82445,6950.205,96.107,573.887,570.252,0.0
